SL-16 R/B               
1 22285U 92093B   25308.29891807  .00000076  00000+0  63513-4 0  9998
2 22285  71.0201 267.4876 0003351 170.1709 189.9480 14.15418086695411
COSMOS 2228             
1 22286U 92094A   25308.24586503  .00002193  00000+0  19037-3 0  9992
2 22286  82.5203 357.3608 0018193   9.5114 350.6449 14.96467257757298
SL-16 R/B               
1 22566U 93016B   25308.18549237 -.00000179  00000+0 -67204-4 0  9998
2 22566  71.0049 118.7756 0009480 167.5478 192.5881 14.15278579684414
COSMOS 2242             
1 22626U 93024A   25308.30946059  .00002566  00000+0  22675-3 0  9993
2 22626  82.5224  26.5644 0016606  12.3282 347.8343 14.95866645761647
SL-16 R/B               
1 22803U 93059B   25308.26478422 -.00000152  00000+0 -51454-4 0  9996
2 22803  70.9891 275.6172 0015690  34.6439 325.5703 14.17202148661762
ARIANE 40 R/B           
1 22830U 93061H   25308.20938560  .00000285  00000+0  12062-3 0  9993
2 22830  98.5123  14.4321 0009658 298.1723  61.8485 14.32763881676138
COSMOS 2278             
1 23087U 94023A   25308.06129851  .00000061  00000+0  56352-4 0  9999
2 23087  71.0519  77.9277 0010414 229.3362 130.6857 14.14331420627043
SL-16 R/B               
1 23088U 94023B   25308.30666689 -.00000003  00000+0  23201-4 0  9996
2 23088  71.0009 334.1994 0001892 177.1975 182.9159 14.14992973628358
SL-16 R/B               
1 23343U 94074B   25308.11965109  .00000581  00000+0  84933-4 0  9993
2 23343  97.7255 338.9497 0005107 270.6679 157.0624 14.79220656668686
SL-16 R/B               
1 23405U 94077B   25308.26650679  .00000111  00000+0  81161-4 0  9993
2 23405  70.9816 256.3484 0003530 315.1871  44.8966 14.15538722598485
ARIANE 40+ R/B          
1 23561U 95021B   25308.16245663  .00000392  00000+0  13919-3 0  9994
2 23561  98.4697  16.2095 0007388 150.3437 263.4553 14.39648408601185
SL-16 R/B               
1 23705U 95058B   25308.12593973  .00000273  00000+0  16403-3 0  9999
2 23705  71.0206  83.8698 0014353 305.4522  54.5260 14.15473439550085
