CCSDS_OMM_VERS = 2.0
CREATION_DATE  = 
ORIGINATOR     = 

OBJECT_NAME    = SL-16 R/B
OBJECT_ID      = 1992-093B
CENTER_NAME    = EARTH
REF_FRAME      = TEME
TIME_SYSTEM    = UTC
MEAN_ELEMENT_THEORY = SGP/SGP4

EPOCH          = 2025-11-04T07:10:26.521248
MEAN_MOTION    = 14.15418086
ECCENTRICITY   = .00033518
INCLINATION    = 71.0201
RA_OF_ASC_NODE = 267.4876
ARG_OF_PERICENTER = 170.1709
MEAN_ANOMALY   = 189.9480

EPHEMERIS_TYPE = 0
CLASSIFICATION_TYPE = U
NORAD_CAT_ID   = 22285
ELEMENT_SET_NO = 999
REV_AT_EPOCH   = 69541
BSTAR          = .63512702E-4
MEAN_MOTION_DOT = .76E-6
MEAN_MOTION_DDOT = 0

CCSDS_OMM_VERS = 2.0
CREATION_DATE  = 
ORIGINATOR     = 

OBJECT_NAME    = COSMOS 2228
OBJECT_ID      = 1992-094A
CENTER_NAME    = EARTH
REF_FRAME      = TEME
TIME_SYSTEM    = UTC
MEAN_ELEMENT_THEORY = SGP/SGP4

EPOCH          = 2025-11-04T05:54:02.738592
MEAN_MOTION    = 14.96467257
ECCENTRICITY   = .00181937
INCLINATION    = 82.5203
RA_OF_ASC_NODE = 357.3608
ARG_OF_PERICENTER = 9.5114
MEAN_ANOMALY   = 350.6449

EPHEMERIS_TYPE = 0
CLASSIFICATION_TYPE = U
NORAD_CAT_ID   = 22286
ELEMENT_SET_NO = 999
REV_AT_EPOCH   = 75729
BSTAR          = .19036883E-3
MEAN_MOTION_DOT = .2193E-4
MEAN_MOTION_DDOT = 0

CCSDS_OMM_VERS = 2.0
CREATION_DATE  = 
ORIGINATOR     = 

OBJECT_NAME    = SL-16 R/B
OBJECT_ID      = 1993-016B
CENTER_NAME    = EARTH
REF_FRAME      = TEME
TIME_SYSTEM    = UTC
MEAN_ELEMENT_THEORY = SGP/SGP4

EPOCH          = 2025-11-04T04:27:06.540768
MEAN_MOTION    = 14.15278579
ECCENTRICITY   = .00094801
INCLINATION    = 71.0049
RA_OF_ASC_NODE = 118.7756
ARG_OF_PERICENTER = 167.5478
MEAN_ANOMALY   = 192.5881

EPHEMERIS_TYPE = 0
CLASSIFICATION_TYPE = U
NORAD_CAT_ID   = 22566
ELEMENT_SET_NO = 999
REV_AT_EPOCH   = 68441
BSTAR          = -.67204386E-4
MEAN_MOTION_DOT = -.179E-5
MEAN_MOTION_DDOT = 0

CCSDS_OMM_VERS = 2.0
CREATION_DATE  = 
ORIGINATOR     = 

OBJECT_NAME    = COSMOS 2242
OBJECT_ID      = 1993-024A
CENTER_NAME    = EARTH
REF_FRAME      = TEME
TIME_SYSTEM    = UTC
MEAN_ELEMENT_THEORY = SGP/SGP4

EPOCH          = 2025-11-04T07:25:37.394976
MEAN_MOTION    = 14.95866645
ECCENTRICITY   = .00166064
INCLINATION    = 82.5224
RA_OF_ASC_NODE = 26.5644
ARG_OF_PERICENTER = 12.3282
MEAN_ANOMALY   = 347.8343

EPHEMERIS_TYPE = 0
CLASSIFICATION_TYPE = U
NORAD_CAT_ID   = 22626
ELEMENT_SET_NO = 999
REV_AT_EPOCH   = 76164
BSTAR          = .22675068E-3
MEAN_MOTION_DOT = .2566E-4
MEAN_MOTION_DDOT = 0

CCSDS_OMM_VERS = 2.0
CREATION_DATE  = 
ORIGINATOR     = 

OBJECT_NAME    = SL-16 R/B
OBJECT_ID      = 1993-059B
CENTER_NAME    = EARTH
REF_FRAME      = TEME
TIME_SYSTEM    = UTC
MEAN_ELEMENT_THEORY = SGP/SGP4

EPOCH          = 2025-11-04T06:21:17.356608
MEAN_MOTION    = 14.17202148
ECCENTRICITY   = .00156903
INCLINATION    = 70.9891
RA_OF_ASC_NODE = 275.6172
ARG_OF_PERICENTER = 34.6439
MEAN_ANOMALY   = 325.5703

EPHEMERIS_TYPE = 0
CLASSIFICATION_TYPE = U
NORAD_CAT_ID   = 22803
ELEMENT_SET_NO = 999
REV_AT_EPOCH   = 66176
BSTAR          = -.51453664E-4
MEAN_MOTION_DOT = -.152E-5
MEAN_MOTION_DDOT = 0

CCSDS_OMM_VERS = 2.0
CREATION_DATE  = 
ORIGINATOR     = 

OBJECT_NAME    = ARIANE 40 R/B
OBJECT_ID      = 1993-061H
CENTER_NAME    = EARTH
REF_FRAME      = TEME
TIME_SYSTEM    = UTC
MEAN_ELEMENT_THEORY = SGP/SGP4

EPOCH          = 2025-11-04T05:01:30.915840
MEAN_MOTION    = 14.32763881
ECCENTRICITY   = .00096588
INCLINATION    = 98.5123
RA_OF_ASC_NODE = 14.4321
ARG_OF_PERICENTER = 298.1723
MEAN_ANOMALY   = 61.8485

EPHEMERIS_TYPE = 0
CLASSIFICATION_TYPE = U
NORAD_CAT_ID   = 22830
ELEMENT_SET_NO = 999
REV_AT_EPOCH   = 67613
BSTAR          = .12062156E-3
MEAN_MOTION_DOT = .285E-5
MEAN_MOTION_DDOT = 0

CCSDS_OMM_VERS = 2.0
CREATION_DATE  = 
ORIGINATOR     = 

OBJECT_NAME    = COSMOS 2278
OBJECT_ID      = 1994-023A
CENTER_NAME    = EARTH
REF_FRAME      = TEME
TIME_SYSTEM    = UTC
MEAN_ELEMENT_THEORY = SGP/SGP4

EPOCH          = 2025-11-04T01:28:16.191264
MEAN_MOTION    = 14.14331420
ECCENTRICITY   = .00104143
INCLINATION    = 71.0519
RA_OF_ASC_NODE = 77.9277
ARG_OF_PERICENTER = 229.3362
MEAN_ANOMALY   = 130.6857

EPHEMERIS_TYPE = 0
CLASSIFICATION_TYPE = U
NORAD_CAT_ID   = 23087
ELEMENT_SET_NO = 999
REV_AT_EPOCH   = 62704
BSTAR          = .56351822E-4
MEAN_MOTION_DOT = .61E-6
MEAN_MOTION_DDOT = 0

CCSDS_OMM_VERS = 2.0
CREATION_DATE  = 
ORIGINATOR     = 

OBJECT_NAME    = SL-16 R/B
OBJECT_ID      = 1994-023B
CENTER_NAME    = EARTH
REF_FRAME      = TEME
TIME_SYSTEM    = UTC
MEAN_ELEMENT_THEORY = SGP/SGP4

EPOCH          = 2025-11-04T07:21:36.019296
MEAN_MOTION    = 14.14992973
ECCENTRICITY   = .00018928
INCLINATION    = 71.0009
RA_OF_ASC_NODE = 334.1994
ARG_OF_PERICENTER = 177.1975
MEAN_ANOMALY   = 182.9159

EPHEMERIS_TYPE = 0
CLASSIFICATION_TYPE = U
NORAD_CAT_ID   = 23088
ELEMENT_SET_NO = 999
REV_AT_EPOCH   = 62835
BSTAR          = .23201469E-4
MEAN_MOTION_DOT = -.3E-7
MEAN_MOTION_DDOT = 0

CCSDS_OMM_VERS = 2.0
CREATION_DATE  = 
ORIGINATOR     = 

OBJECT_NAME    = SL-16 R/B
OBJECT_ID      = 1994-074B
CENTER_NAME    = EARTH
REF_FRAME      = TEME
TIME_SYSTEM    = UTC
MEAN_ELEMENT_THEORY = SGP/SGP4

EPOCH          = 2025-11-04T02:52:17.854176
MEAN_MOTION    = 14.79220656
ECCENTRICITY   = .00051076
INCLINATION    = 97.7255
RA_OF_ASC_NODE = 338.9497
ARG_OF_PERICENTER = 270.6679
MEAN_ANOMALY   = 157.0624

EPHEMERIS_TYPE = 0
CLASSIFICATION_TYPE = U
NORAD_CAT_ID   = 23343
ELEMENT_SET_NO = 999
REV_AT_EPOCH   = 66868
BSTAR          = .8493303E-4
MEAN_MOTION_DOT = .581E-5
MEAN_MOTION_DDOT = 0

CCSDS_OMM_VERS = 2.0
CREATION_DATE  = 
ORIGINATOR     = 

OBJECT_NAME    = SL-16 R/B
OBJECT_ID      = 1994-077B
CENTER_NAME    = EARTH
REF_FRAME      = TEME
TIME_SYSTEM    = UTC
MEAN_ELEMENT_THEORY = SGP/SGP4

EPOCH          = 2025-11-04T06:23:46.186656
MEAN_MOTION    = 14.15538722
ECCENTRICITY   = .00035304
INCLINATION    = 70.9816
RA_OF_ASC_NODE = 256.3484
ARG_OF_PERICENTER = 315.1871
MEAN_ANOMALY   = 44.8966

EPHEMERIS_TYPE = 0
CLASSIFICATION_TYPE = U
NORAD_CAT_ID   = 23405
ELEMENT_SET_NO = 999
REV_AT_EPOCH   = 59848
BSTAR          = .81160811E-4
MEAN_MOTION_DOT = .111E-5
MEAN_MOTION_DDOT = 0

CCSDS_OMM_VERS = 2.0
CREATION_DATE  = 
ORIGINATOR     = 

OBJECT_NAME    = ARIANE 40+ R/B
OBJECT_ID      = 1995-021B
CENTER_NAME    = EARTH
REF_FRAME      = TEME
TIME_SYSTEM    = UTC
MEAN_ELEMENT_THEORY = SGP/SGP4

EPOCH          = 2025-11-04T03:53:56.252832
MEAN_MOTION    = 14.39648408
ECCENTRICITY   = .00073883
INCLINATION    = 98.4697
RA_OF_ASC_NODE = 16.2095
ARG_OF_PERICENTER = 150.3437
MEAN_ANOMALY   = 263.4553

EPHEMERIS_TYPE = 0
CLASSIFICATION_TYPE = U
NORAD_CAT_ID   = 23561
ELEMENT_SET_NO = 999
REV_AT_EPOCH   = 60118
BSTAR          = .13918593E-3
MEAN_MOTION_DOT = .392E-5
MEAN_MOTION_DDOT = 0

CCSDS_OMM_VERS = 2.0
CREATION_DATE  = 
ORIGINATOR     = 

OBJECT_NAME    = SL-16 R/B
OBJECT_ID      = 1995-058B
CENTER_NAME    = EARTH
REF_FRAME      = TEME
TIME_SYSTEM    = UTC
MEAN_ELEMENT_THEORY = SGP/SGP4

EPOCH          = 2025-11-04T03:01:21.192672
MEAN_MOTION    = 14.15473439
ECCENTRICITY   = .00143533
INCLINATION    = 71.0206
RA_OF_ASC_NODE = 83.8698
ARG_OF_PERICENTER = 305.4522
MEAN_ANOMALY   = 54.5260

EPHEMERIS_TYPE = 0
CLASSIFICATION_TYPE = U
NORAD_CAT_ID   = 23705
ELEMENT_SET_NO = 999
REV_AT_EPOCH   = 55008
BSTAR          = .16403491E-3
MEAN_MOTION_DOT = .273E-5
MEAN_MOTION_DDOT = 0

